STARLINK-30415          
1 57821U 23138P   26202.02262578  .00000538  00000+0  29079-4 0  9990
2 57821  43.0011 201.7183 0001291 269.4753  90.5951 15.27579242159126
STARLINK-30407          
1 57823U 23138R   26202.05877317 -.00000548  00000+0 -10403-4 0  9992
2 57823  43.0006  95.5822 0001038 269.2875  90.7858 15.27574567160364
STARLINK-30408          
1 57824U 23138S   26202.03019099  .00000560  00000+0  29871-4 0  9997
2 57824  43.0008 200.9192 0001263 271.0243  89.0464 15.27578010159122
STARLINK-30377          
1 57825U 23138T   26202.29045181  .00001889  00000+0  78159-4 0  9995
2 57825  42.9991 199.4319 0001036 284.6622  75.4114 15.27579530159066
STARLINK-30422          
1 57826U 23138U   26202.05203711  .00000685  00000+0  34414-4 0  9994
2 57826  43.0043 201.0840 0002037 296.3428  63.7214 15.27579442159122
STARLINK-30402          
1 57827U 23138V   26202.30331998 -.00001985  00000+0 -62663-4 0  9995
2 57827  43.0018 199.5303 0001473 276.1010  83.9674 15.27557161159168
STARLINK-30411          
1 57828U 23138W   26202.03789766  .00000044  00000+0  11141-4 0  9994
2 57828  43.0007 200.9551 0001695 286.9209  73.1456 15.27575112159068
STARLINK-30418          
1 57829U 23138X   26202.03275853  .00000108  00000+0  13435-4 0  9991
2 57829  43.0004 200.9348 0001420 274.3612  85.7078 15.27576645158964
YAOGAN-40 01A           
1 57830U 23139A   26202.29929760  .00000072  00000+0  28769-4 0  9991
2 57830  85.9885 244.6468 0002399  92.4861 267.6597 14.12453132147511
YAOGAN-40 01B           
1 57832U 23139C   26202.29945344  .00000083  00000+0  34964-4 0  9995
2 57832  85.9883 244.6244 0002487  91.4462 268.7006 14.12453604147529
YAOGAN-40 01C           
1 57833U 23139D   26202.29937358  .00000095  00000+0  41150-4 0  9990
2 57833  85.9887 243.9113 0002021  74.0250 286.1156 14.12452210147620
STARLINK-30285          
1 57840U 23141A   26201.89315746  .00001379  00000+0  56189-4 0  9991
2 57840  53.1609  24.5783 0001348  94.6538 265.4618 15.31705434160732
STARLINK-30410          
1 57841U 23141B   26202.22871938  .00000265  00000+0  20317-4 0  9997
2 57841  53.1616  22.9313 0001192  90.2772 269.8366 15.31699631160785
STARLINK-30435          
1 57842U 23141C   26201.79063723  .00001875  00000+0  72148-4 0  9991
2 57842  53.1614  25.2035 0001205  87.1628 272.9512 15.31705004160714
STARLINK-30423          
1 57843U 23141D   26201.78130172  .00000563  00000+0  29910-4 0  9996
2 57843  53.1610  25.1038 0001137  87.9683 272.1449 15.31703243160710
STARLINK-30292          
1 57844U 23141E   26201.93297664  .00000700  00000+0  35776-4 0  9994
2 57844  53.1617  24.8363 0001232 102.5896 257.5242 15.30193911160735
STARLINK-30416          
1 57847U 23141H   26201.77665856  .00000228  00000+0  19112-4 0  9992
2 57847  53.1614  25.2452 0001140  84.9845 275.1286 15.31702398160712
STARLINK-30426          
1 57848U 23141J   26201.92882152  .00001878  00000+0  75507-4 0  9992
2 57848  53.1617  25.2681 0001289  99.9514 260.1633 15.30208494160721
STARLINK-30430          
1 57849U 23141K   26202.24274124 -.00004017  00000+0 -11763-3 0  9996
2 57849  53.1629  23.2145 0001347  69.9618 290.1529 15.31728687160780
STARLINK-30425          
1 57850U 23141L   26202.06205880  .00071559  00000+0  23638-2 0  9997
2 57850  53.1616  24.6887 0001293 112.8661 247.2477 15.30759055160745
STARLINK-30405          
1 57851U 23141M   26201.83257744  .00000412  00000+0  25058-4 0  9998
2 57851  53.1610  24.8674 0001242  95.0768 265.0375 15.31695708160728
STARLINK-30431          
1 57852U 23141N   26201.74230802  .00000147  00000+0  17098-4 0  9995
2 57852  53.1625  25.7763 0001359  86.4387 273.6769 15.30196169160698
STARLINK-30404          
1 57853U 23141P   26201.80342163 -.00000929  00000+0 -19263-4 0  9993
2 57853  53.1616  25.4446 0001210  87.8378 272.2761 15.30186836160715
STARLINK-30412          
1 57854U 23141Q   26201.87927018 -.00001149  00000+0 -26670-4 0  9994
2 57854  53.1604  25.2079 0001185  93.5038 266.6098 15.30199155160720
STARLINK-30392          
1 57855U 23141R   26201.94142102 -.00000175  00000+0  62129-5 0  9993
2 57855  53.1628  24.8809 0001493  86.3581 273.7591 15.30194266160734
STARLINK-30291          
1 57856U 23141S   26202.21008312  .00003227  00000+0  11575-3 0  9996
2 57856  53.1608  23.0075 0001245  98.6581 261.4562 15.31689099160781
STARLINK-30424          
1 57857U 23141T   26201.42032337  .00000566  00000+0  29999-4 0  9996
2 57857  53.1629   1.3533 0001140  97.6829 262.4302 15.31700484161013
STARLINK-30290          
1 57858U 23141U   26202.21216430  .00001303  00000+0  56100-4 0  9997
2 57858  53.1619  23.7288 0001582  80.4777 279.6403 15.30204488160776
STARLINK-30414          
1 57859U 23141V   26201.88243719 -.00000106  00000+0  85637-5 0  9999
2 57859  53.1630  25.2248 0001463  96.7688 263.3480 15.30193459160727
STARLINK-30272          
1 57860U 23141W   26202.21474349  .00002516  00000+0  92819-4 0  9999
2 57860  53.1599  23.0357 0001132  95.4098 264.7032 15.31701874160785
