OBJECT_NAME,OBJECT_ID,EPOCH,MEAN_MOTION,ECCENTRICITY,INCLINATION,RA_OF_ASC_NODE,ARG_OF_PERICENTER,MEAN_ANOMALY,EPHEMERIS_TYPE,CLASSIFICATION_TYPE,NORAD_CAT_ID,ELEMENT_SET_NO,REV_AT_EPOCH,BSTAR,MEAN_MOTION_DOT,MEAN_MOTION_DDOT
STARLINK-30415,2023-138P,2026-07-21T00:32:34.867392,15.27579242,.00012917,43.0011,201.7183,269.4753,90.5951,0,U,57821,999,15912,.29079023E-4,.538E-5,0
STARLINK-30407,2023-138R,2026-07-21T01:24:38.001888,15.27574567,.00010387,43.0006,95.5822,269.2875,90.7858,0,U,57823,999,16036,-.10402862E-4,-.548E-5,0
STARLINK-30408,2023-138S,2026-07-21T00:43:28.501536,15.27578010,.00012633,43.0008,200.9192,271.0243,89.0464,0,U,57824,999,15912,.29871375E-4,.56E-5,0
STARLINK-30377,2023-138T,2026-07-21T06:58:15.036384,15.27579530,.00010366,42.9991,199.4319,284.6622,75.4114,0,U,57825,999,15906,.78159369E-4,.1889E-4,0
STARLINK-30422,2023-138U,2026-07-21T01:14:56.006304,15.27579442,.00020377,43.0043,201.0840,296.3428,63.7214,0,U,57826,999,15912,.34413803E-4,.685E-5,0
STARLINK-30402,2023-138V,2026-07-21T07:16:46.846272,15.27557161,.00014734,43.0018,199.5303,276.1010,83.9674,0,U,57827,999,15916,-.62662764E-4,-.1985E-4,0
STARLINK-30411,2023-138W,2026-07-21T00:54:34.357824,15.27575112,.00016956,43.0007,200.9551,286.9209,73.1456,0,U,57828,999,15906,.11141486E-4,.44E-6,0
STARLINK-30418,2023-138X,2026-07-21T00:47:10.336992,15.27576645,.00014203,43.0004,200.9348,274.3612,85.7078,0,U,57829,999,15896,.13434844E-4,.108E-5,0
YAOGAN-40 01A,2023-139A,2026-07-21T07:10:59.312640,14.12453132,.00023995,85.9885,244.6468,92.4861,267.6597,0,U,57830,999,14751,.28768805E-4,.72E-6,0
YAOGAN-40 01B,2023-139C,2026-07-21T07:11:12.777216,14.12453604,.0002487,85.9883,244.6244,91.4462,268.7006,0,U,57832,999,14752,.34964252E-4,.83E-6,0
YAOGAN-40 01C,2023-139D,2026-07-21T07:11:05.877312,14.12452210,.00020214,85.9887,243.9113,74.0250,286.1156,0,U,57833,999,14762,.41149505E-4,.95E-6,0
STARLINK-30285,2023-141A,2026-07-20T21:26:08.804544,15.31705434,.0001348,53.1609,24.5783,94.6538,265.4618,0,U,57840,999,16073,.56188827E-4,.1379E-4,0
STARLINK-30410,2023-141B,2026-07-21T05:29:21.354432,15.31699631,.00011927,53.1616,22.9313,90.2772,269.8366,0,U,57841,999,16078,.2031659E-4,.265E-5,0
STARLINK-30435,2023-141C,2026-07-20T18:58:31.056672,15.31705004,.00012058,53.1614,25.2035,87.1628,272.9512,0,U,57842,999,16071,.72147831E-4,.1875E-4,0
STARLINK-30423,2023-141D,2026-07-20T18:45:04.468608,15.31703243,.00011375,53.1610,25.1038,87.9683,272.1449,0,U,57843,999,16071,.29909879E-4,.563E-5,0
STARLINK-30292,2023-141E,2026-07-20T22:23:29.181696,15.30193911,.00012322,53.1617,24.8363,102.5896,257.5242,0,U,57844,999,16073,.35776142E-4,.7E-5,0
STARLINK-30416,2023-141H,2026-07-20T18:38:23.299584,15.31702398,.00011405,53.1614,25.2452,84.9845,275.1286,0,U,57847,999,16071,.19111891E-4,.228E-5,0
STARLINK-30426,2023-141J,2026-07-20T22:17:30.179328,15.30208494,.00012892,53.1617,25.2681,99.9514,260.1633,0,U,57848,999,16072,.75507336E-4,.1878E-4,0
STARLINK-30430,2023-141K,2026-07-21T05:49:32.843136,15.31728687,.00013474,53.1629,23.2145,69.9618,290.1529,0,U,57849,999,16078,-.11763437E-3,-.4017E-4,0
STARLINK-30425,2023-141L,2026-07-21T01:29:21.880320,15.30759055,.00012936,53.1616,24.6887,112.8661,247.2477,0,U,57850,999,16074,.23637955E-2,.71559E-3,0
STARLINK-30405,2023-141M,2026-07-20T19:58:54.690816,15.31695708,.0001242,53.1610,24.8674,95.0768,265.0375,0,U,57851,999,16072,.25058178E-4,.412E-5,0
STARLINK-30431,2023-141N,2026-07-20T17:48:55.412928,15.30196169,.0001359,53.1625,25.7763,86.4387,273.6769,0,U,57852,999,16069,.17097961E-4,.147E-5,0
STARLINK-30404,2023-141P,2026-07-20T19:16:55.628832,15.30186836,.00012104,53.1616,25.4446,87.8378,272.2761,0,U,57853,999,16071,-.19263242E-4,-.929E-5,0
STARLINK-30412,2023-141Q,2026-07-20T21:06:08.943552,15.30199155,.00011851,53.1604,25.2079,93.5038,266.6098,0,U,57854,999,16072,-.26669996E-4,-.1149E-4,0
STARLINK-30392,2023-141R,2026-07-20T22:35:38.776128,15.30194266,.00014931,53.1628,24.8809,86.3581,273.7591,0,U,57855,999,16073,.6212939E-5,-.175E-5,0
STARLINK-30291,2023-141S,2026-07-21T05:02:31.181568,15.31689099,.0001245,53.1608,23.0075,98.6581,261.4562,0,U,57856,999,16078,.1157487E-3,.3227E-4,0
STARLINK-30424,2023-141T,2026-07-20T10:05:15.939168,15.31700484,.00011403,53.1629,1.3533,97.6829,262.4302,0,U,57857,999,16101,.2999864E-4,.566E-5,0
STARLINK-30290,2023-141U,2026-07-21T05:05:30.995520,15.30204488,.00015825,53.1619,23.7288,80.4777,279.6403,0,U,57858,999,16077,.56099968E-4,.1303E-4,0
STARLINK-30414,2023-141V,2026-07-20T21:10:42.573216,15.30193459,.00014639,53.1630,25.2248,96.7688,263.3480,0,U,57859,999,16072,.8563748E-5,-.106E-5,0
STARLINK-30272,2023-141W,2026-07-21T05:09:13.837536,15.31701874,.00011329,53.1599,23.0357,95.4098,264.7032,0,U,57860,999,16078,.92819068E-4,.2516E-4,0
